[{"OBJECT_NAME":"ONEWEB-0402","OBJECT_ID":"2021-132P","EPOCH":"2026-03-09T18:29:35.094048","MEAN_MOTION":13.18684019,"ECCENTRICITY":0.00014134,"INCLINATION":87.925,"RA_OF_ASC_NODE":355.1744,"ARG_OF_PERICENTER":92.6956,"MEAN_ANOMALY":267.4338,"EPHEMERIS_TYPE":0,"CLASSIFICATION_TYPE":"U","NORAD_CAT_ID":50482,"ELEMENT_SET_NO":999,"REV_AT_EPOCH":20853,"BSTAR":-6.668032e-6,"MEAN_MOTION_DOT":1.0e-7,"MEAN_MOTION_DDOT":0},{"OBJECT_NAME":"FENGYUN 1C DEB","OBJECT_ID":"1999-025CPT","EPOCH":"2026-03-07T13:28:03.366048","MEAN_MOTION":13.57252969,"ECCENTRICITY":0.0259156,"INCLINATION":99.1549,"RA_OF_ASC_NODE":88.2947,"ARG_OF_PERICENTER":327.6522,"MEAN_ANOMALY":186.6788,"EPHEMERIS_TYPE":0,"CLASSIFICATION_TYPE":"U","NORAD_CAT_ID":31990,"ELEMENT_SET_NO":999,"REV_AT_EPOCH":63922,"BSTAR":0.00035253,"MEAN_MOTION_DOT":2.71e-6,"MEAN_MOTION_DDOT":0}]
